id,Name,Last Name,PhoneCC,phone,full phone,country,country ID,region
1,Reiner,Fernandez,507,82534183,+507-82534183,Panama,6,Latam
2,Betty,Resi,505,38729729,+505-38729729,Nicaragua,5,Latam
3,Andrea,Zendaya,507,95193031,+507-95193031,Panama,6,Latam
4,Casper,Ulrich,54,39882455,+54-39882455,Argentina,1,Latam
5,Vany,Sentil,505,27801093,+505-27801093,Nicaragua,5,Latam
6,Kendra,Yvay,58,70882767,+58-70882767,Venezuela,4,Latam
7,Rosaline,Mc,58,37193617,+58-37193617,Venezuela,4,Latam
8,Ariana,Yvay,54,86981951,+54-86981951,Argentina,1,Latam
9,Catalina,Cordero,506,74183650,+506-74183650,Costa Rica,0,Latam
10,Roland,Alvarez,54,15798709,+54-15798709,Argentina,1,Latam
11,Zen,Araya,1,78555919,+1-78555919,Estados Unidos,2,America
12,Catalina,Chaves,595,72367816,+595-72367816,Paraguay,10,Latam
13,Alejandra,Rojas,1,53151429,+1-53151429,Estados Unidos,2,America
14,Rudy,Ulrich,54,63297249,+54-63297249,Argentina,1,Latam
15,Nelson,Yardy,598,79872925,+598-79872925,Uruguay,9,Latam
16,Oscar,Ruiz,359,47246711,+359-47246711,Bulgaria,3,Europe
17,Roland,Rojas,595,71629469,+595-71629469,Paraguay,10,Latam
18,Karina,Chavarria,506,15324883,+506-15324883,Costa Rica,0,Latam
19,Vany,Pavan,54,43586899,+54-43586899,Argentina,1,Latam
20,Vany,X-raz,86,97812276,+86-97812276,China,11,Asia
21,Nelson,Cardenas,359,65434166,+359-65434166,Bulgaria,3,Europe
22,Nilson,Resi,598,38435905,+598-38435905,Uruguay,9,Latam
23,Andrea,Yardy,86,64822674,+86-64822674,China,11,Asia
24,Alessandro,Alvarez,58,37704844,+58-37704844,Venezuela,4,Latam
25,Alejandra,Kumar,86,17054098,+86-17054098,China,11,Asia
26,Francisco,Alvarez,1,32310092,+1-32310092,Estados Unidos,2,America
27,Reiner,Mc,506,67986890,+506-67986890,Costa Rica,0,Latam
28,Zen,Wellington,86,87633410,+86-87633410,China,11,Asia
29,Sandro,Ruiz,91,61499954,+91-61499954,India,12,Asia
30,Ariana,Zendaya,507,83118772,+507-83118772,Panama,6,Latam
31,Oscar,Lumba,1868,29417014,+1868-29417014,Trinidad y Tobago,8,Latam
32,Ariana,Rojas,1,56933234,+1-56933234,Estados Unidos,2,America
33,Rodrigo,Amores,595,60040831,+595-60040831,Paraguay,10,Latam
34,Francisco,Kumar,86,50287396,+86-50287396,China,11,Asia
35,Rosaline,Flores,505,61000501,+505-61000501,Nicaragua,5,Latam
36,Randy,Chaves,1,97878366,+1-97878366,Estados Unidos,2,America
37,Antonio,Araya,359,87025814,+359-87025814,Bulgaria,3,Europe
38,Alexa,Contreras,505,20227827,+505-20227827,Nicaragua,5,Latam
39,Chanti,Cabille,86,37392196,+86-37392196,China,11,Asia
40,Alex,Sandoval,595,93278545,+595-93278545,Paraguay,10,Latam
41,Oscar,Alvarez,507,72079479,+507-72079479,Panama,6,Latam
42,Chanti,Rojas,507,22559557,+507-22559557,Panama,6,Latam
43,Rudy,Resi,598,82064071,+598-82064071,Uruguay,9,Latam
44,Randy,Resi,86,39432402,+86-39432402,China,11,Asia
45,Randy,Chavarria,598,98145431,+598-98145431,Uruguay,9,Latam
46,Zen,Alvarez,506,64924400,+506-64924400,Costa Rica,0,Latam
47,Srini,Rodriguez,58,77355738,+58-77355738,Venezuela,4,Latam
48,Rodrigo,Rahi,91,43761190,+91-43761190,India,12,Asia
49,Robert,Rahi,595,24386453,+595-24386453,Paraguay,10,Latam
50,Robert,Sandoval,507,81497593,+507-81497593,Panama,6,Latam
51,Randy,Araya,598,81097190,+598-81097190,Uruguay,9,Latam
52,Reiner,Araya,507,76385194,+507-76385194,Panama,6,Latam
53,Casper,Mata,359,67477108,+359-67477108,Bulgaria,3,Europe
54,Nilson,Sancho,91,37804210,+91-37804210,India,12,Asia
55,Nelson,Resi,359,41160539,+359-41160539,Bulgaria,3,Europe
56,Betty,Cordero,91,80607287,+91-80607287,India,12,Asia
57,Fran,Araya,1,52171205,+1-52171205,Estados Unidos,2,America
58,Fran,Wellington,54,79984186,+54-79984186,Argentina,1,Latam
59,Zen,Sandoval,54,53219238,+54-53219238,Argentina,1,Latam
60,Randy,Araya,598,20390655,+598-20390655,Uruguay,9,Latam
61,Alessandro,Mata,1,35346101,+1-35346101,Estados Unidos,2,America
62,Alejandra,Gonzalez,598,75681701,+598-75681701,Uruguay,9,Latam
63,Kevin,Contreras,598,76090744,+598-76090744,Uruguay,9,Latam
64,Antonio,Ruan,598,43668810,+598-43668810,Uruguay,9,Latam
65,Betty,X-raz,1,14382900,+1-14382900,Estados Unidos,2,America
66,Fran,Rojas,86,99672864,+86-99672864,China,11,Asia
67,Casper,Clarito,505,25834252,+505-25834252,Nicaragua,5,Latam
68,Reiner,Mc,595,54176585,+595-54176585,Paraguay,10,Latam
69,Rena,Ulrich,58,56325869,+58-56325869,Venezuela,4,Latam
70,Oscar,Livi,58,91264165,+58-91264165,Venezuela,4,Latam
71,Chanti,Ruiz,54,33346450,+54-33346450,Argentina,1,Latam
72,Antonio,Fernandez,58,49699119,+58-49699119,Venezuela,4,Latam
73,Srini,Sancho,595,29426542,+595-29426542,Paraguay,10,Latam
74,Alex,Sandoval,91,45687011,+91-45687011,India,12,Asia
75,Alejandro,Araya,86,68328090,+86-68328090,China,11,Asia
76,Nelson,Yvay,86,72968495,+86-72968495,China,11,Asia
77,Andrea,Livi,598,51406251,+598-51406251,Uruguay,9,Latam
78,Betty,Lumba,595,92821327,+595-92821327,Paraguay,10,Latam
79,Fran,Yardy,505,32556054,+505-32556054,Nicaragua,5,Latam
80,Casper,Amores,58,16970220,+58-16970220,Venezuela,4,Latam
81,Ariana,Araya,1868,45307238,+1868-45307238,Trinidad y Tobago,8,Latam
82,Alexa,Cabille,58,82297345,+58-82297345,Venezuela,4,Latam
83,Andrea,Sancho,86,29489999,+86-29489999,China,11,Asia
84,Antonio,Resi,86,90105900,+86-90105900,China,11,Asia
85,Alex,Alvarez,420,55778879,+420-55778879,Republica Checa,7,Europe
86,Karina,Alvarez,86,28847139,+86-28847139,China,11,Asia
87,Rosaline,Fernandez,507,17603625,+507-17603625,Panama,6,Latam
88,Casper,Sancho,420,43007088,+420-43007088,Republica Checa,7,Europe
89,Nelson,Pavan,506,96595432,+506-96595432,Costa Rica,0,Latam
90,Roiner,Yardy,506,28370531,+506-28370531,Costa Rica,0,Latam
91,Randy,Kumar,595,73796991,+595-73796991,Paraguay,10,Latam
92,Robert,Salas,91,92958286,+91-92958286,India,12,Asia
93,Roiner,Salas,595,36117578,+595-36117578,Paraguay,10,Latam
94,Fran,Livi,420,39053857,+420-39053857,Republica Checa,7,Europe
95,Roland,Jimenez,91,27135359,+91-27135359,India,12,Asia
96,Zen,Sancho,1868,95570911,+1868-95570911,Trinidad y Tobago,8,Latam
97,Fran,Flores,58,98043438,+58-98043438,Venezuela,4,Latam
98,Kendra,Salas,54,40222314,+54-40222314,Argentina,1,Latam
99,Rudy,Lumba,506,93239323,+506-93239323,Costa Rica,0,Latam
100,Alejandra,Chaves,506,92606281,+506-92606281,Costa Rica,0,Latam
101,Ariana,Yardy,1,50224290,+1-50224290,Estados Unidos,2,America
102,Ruth,Rojas,1868,10052405,+1868-10052405,Trinidad y Tobago,8,Latam
103,Ruth,Amores,1,63370176,+1-63370176,Estados Unidos,2,America
104,Srini,Cordero,1868,66784571,+1868-66784571,Trinidad y Tobago,8,Latam
105,Alexa,Cordero,506,94393449,+506-94393449,Costa Rica,0,Latam
106,Rena,Pavan,505,29192697,+505-29192697,Nicaragua,5,Latam
107,Ruth,Jimenez,420,74963458,+420-74963458,Republica Checa,7,Europe
108,Alex,Clarito,1868,88509745,+1868-88509745,Trinidad y Tobago,8,Latam
109,Betty,Zendaya,86,27525548,+86-27525548,China,11,Asia
110,Ariana,Pavan,1,46615750,+1-46615750,Estados Unidos,2,America
111,Rena,Yvay,505,29931252,+505-29931252,Nicaragua,5,Latam
112,Alejandra,Cordero,1868,64799631,+1868-64799631,Trinidad y Tobago,8,Latam
113,Rodrigo,Rojas,595,23257662,+595-23257662,Paraguay,10,Latam
114,Oscar,Pavan,91,99047895,+91-99047895,India,12,Asia
115,Roland,Cardenas,598,61459849,+598-61459849,Uruguay,9,Latam
116,Antonio,Fernandez,54,54132309,+54-54132309,Argentina,1,Latam
117,Oscar,Cabille,1868,78767680,+1868-78767680,Trinidad y Tobago,8,Latam
118,Katty,Claire,58,26470947,+58-26470947,Venezuela,4,Latam
119,Alessandro,Gonzalez,58,84495137,+58-84495137,Venezuela,4,Latam
120,Rosaline,Yvay,507,81457278,+507-81457278,Panama,6,Latam
121,Alessandro,Sandoval,1,92637090,+1-92637090,Estados Unidos,2,America
122,Catalina,Fernandez,595,38208083,+595-38208083,Paraguay,10,Latam
123,Srini,Yardy,58,94864397,+58-94864397,Venezuela,4,Latam
124,Nelson,Claire,507,48132680,+507-48132680,Panama,6,Latam
125,Betty,Livi,54,99841052,+54-99841052,Argentina,1,Latam
126,Oscar,Resi,595,19562433,+595-19562433,Paraguay,10,Latam
127,Rodrigo,Contreras,359,79357026,+359-79357026,Bulgaria,3,Europe
128,Nelson,Araya,505,57103967,+505-57103967,Nicaragua,5,Latam
129,Roiner,Araya,359,45779291,+359-45779291,Bulgaria,3,Europe
130,Karina,Flores,91,65993409,+91-65993409,India,12,Asia
131,Vany,Cordero,86,22022503,+86-22022503,China,11,Asia
132,Ohana,Ruiz,1,50805942,+1-50805942,Estados Unidos,2,America
133,Srini,Lumba,598,94204244,+598-94204244,Uruguay,9,Latam
134,Francisco,Sandoval,598,21052586,+598-21052586,Uruguay,9,Latam
135,Zen,Cardenas,598,70461787,+598-70461787,Uruguay,9,Latam
136,Kevin,Yvay,58,95559195,+58-95559195,Venezuela,4,Latam
137,Antonio,X-raz,359,81954279,+359-81954279,Bulgaria,3,Europe
138,Alejandra,Yvay,595,67906698,+595-67906698,Paraguay,10,Latam
139,Pauline,Livi,91,24560482,+91-24560482,India,12,Asia
140,Reiner,Pavan,420,91782620,+420-91782620,Republica Checa,7,Europe
141,Pauline,Claire,595,41413842,+595-41413842,Paraguay,10,Latam
142,Andrea,Wellington,505,97484019,+505-97484019,Nicaragua,5,Latam
143,Pauline,Chaves,598,92037025,+598-92037025,Uruguay,9,Latam
144,Andrea,Jimenez,86,71455191,+86-71455191,China,11,Asia
145,Antonio,Yardy,506,23952143,+506-23952143,Costa Rica,0,Latam
146,Reiner,Salas,1868,99198997,+1868-99198997,Trinidad y Tobago,8,Latam
147,Roiner,Yardy,507,81541586,+507-81541586,Panama,6,Latam
148,Antonio,Mc,507,72144876,+507-72144876,Panama,6,Latam
149,Rudy,Amores,359,99490469,+359-99490469,Bulgaria,3,Europe
150,Rena,Mata,91,41245809,+91-41245809,India,12,Asia
151,Francisco,Sentil,595,21779155,+595-21779155,Paraguay,10,Latam
152,Rosaline,Ulrich,595,72518820,+595-72518820,Paraguay,10,Latam
153,Alex,Rodriguez,58,44384672,+58-44384672,Venezuela,4,Latam
154,Alejandro,Pavan,598,65129716,+598-65129716,Uruguay,9,Latam
155,Sandro,Resi,86,24907010,+86-24907010,China,11,Asia
156,Alex,Amores,359,36836759,+359-36836759,Bulgaria,3,Europe
157,Betty,Pavan,507,10500193,+507-10500193,Panama,6,Latam
158,Rodrigo,Sandoval,1,32988404,+1-32988404,Estados Unidos,2,America
159,Fran,Mc,58,53634482,+58-53634482,Venezuela,4,Latam
160,Rodrigo,Mc,420,88789273,+420-88789273,Republica Checa,7,Europe
161,Nilson,Contreras,91,52484057,+91-52484057,India,12,Asia
162,Alejandra,Lumba,420,71336748,+420-71336748,Republica Checa,7,Europe
163,Kevin,Cabille,595,41654857,+595-41654857,Paraguay,10,Latam
164,Catalina,Jimenez,1868,38324132,+1868-38324132,Trinidad y Tobago,8,Latam
165,Alexa,Araya,58,92795039,+58-92795039,Venezuela,4,Latam
166,Andrea,Zendaya,506,61850267,+506-61850267,Costa Rica,0,Latam
167,Katty,Chavarria,1868,46678348,+1868-46678348,Trinidad y Tobago,8,Latam
168,Ruth,Ulrich,86,67561712,+86-67561712,China,11,Asia
169,Alex,Chavarria,359,59475180,+359-59475180,Bulgaria,3,Europe
170,Nelson,Kumar,359,78936823,+359-78936823,Bulgaria,3,Europe
171,Rosaline,Livi,54,76613139,+54-76613139,Argentina,1,Latam
172,Rosaline,Yvay,505,23556678,+505-23556678,Nicaragua,5,Latam
173,Karina,Clarito,598,23237592,+598-23237592,Uruguay,9,Latam
174,Kendra,Sandoval,595,52424636,+595-52424636,Paraguay,10,Latam
175,Alejandro,Araya,86,92299919,+86-92299919,China,11,Asia
176,Alexa,Wellington,595,66362317,+595-66362317,Paraguay,10,Latam
177,Zen,Clarito,91,11557815,+91-11557815,India,12,Asia
178,Rudy,Flores,1868,25943082,+1868-25943082,Trinidad y Tobago,8,Latam
179,Rodrigo,Amores,595,22760085,+595-22760085,Paraguay,10,Latam
180,Chanti,Mc,505,16324297,+505-16324297,Nicaragua,5,Latam
181,Reiner,Mata,1,93513468,+1-93513468,Estados Unidos,2,America
182,Rodrigo,Cordero,505,61740073,+505-61740073,Nicaragua,5,Latam
183,Pauline,Ulrich,507,96531969,+507-96531969,Panama,6,Latam
184,Rodrigo,Lumba,595,57883259,+595-57883259,Paraguay,10,Latam
185,Alejandro,Chaves,58,67606957,+58-67606957,Venezuela,4,Latam
186,Fran,Kumar,598,63388768,+598-63388768,Uruguay,9,Latam
187,Alessandro,Ruiz,506,33460334,+506-33460334,Costa Rica,0,Latam
188,Betty,Sandoval,507,80451024,+507-80451024,Panama,6,Latam
189,Alejandra,Cordero,507,88336857,+507-88336857,Panama,6,Latam
190,Francisco,Resi,1,63113813,+1-63113813,Estados Unidos,2,America
191,Francisco,Rojas,595,69356792,+595-69356792,Paraguay,10,Latam
192,Catalina,Amores,507,26898268,+507-26898268,Panama,6,Latam
193,Alexa,Chavarria,91,35424284,+91-35424284,India,12,Asia
194,Kevin,Yardy,505,87463590,+505-87463590,Nicaragua,5,Latam
195,Rudy,Livi,58,89587658,+58-89587658,Venezuela,4,Latam
196,Alex,Rahi,420,23260094,+420-23260094,Republica Checa,7,Europe
197,Zen,Clarito,91,22093905,+91-22093905,India,12,Asia
198,Catalina,Mata,507,11121590,+507-11121590,Panama,6,Latam
199,Alejandra,Mc,595,26657482,+595-26657482,Paraguay,10,Latam
200,Robert,Sancho,1,18842194,+1-18842194,Estados Unidos,2,America
201,Ruth,Cordero,1,76644387,+1-76644387,Estados Unidos,2,America
202,Zen,Gonzalez,86,77602031,+86-77602031,China,11,Asia
203,Francisco,Sancho,1868,71940014,+1868-71940014,Trinidad y Tobago,8,Latam
204,Rosaline,Sancho,359,91264773,+359-91264773,Bulgaria,3,Europe
205,Casper,Claire,359,37012975,+359-37012975,Bulgaria,3,Europe
206,Ruth,Jimenez,506,20393926,+506-20393926,Costa Rica,0,Latam
207,Casper,Livi,420,80710156,+420-80710156,Republica Checa,7,Europe
208,Zen,Ulrich,505,23410921,+505-23410921,Nicaragua,5,Latam
209,Oscar,Cordero,359,48499464,+359-48499464,Bulgaria,3,Europe
210,Ohana,Flores,1868,66076689,+1868-66076689,Trinidad y Tobago,8,Latam
211,Oscar,Mata,505,40640857,+505-40640857,Nicaragua,5,Latam
212,Alejandra,Kumar,505,61593863,+505-61593863,Nicaragua,5,Latam
213,Francisco,X-raz,420,71436247,+420-71436247,Republica Checa,7,Europe
214,Catalina,Lumba,506,52096947,+506-52096947,Costa Rica,0,Latam
215,Francisco,X-raz,420,51445586,+420-51445586,Republica Checa,7,Europe
216,Alessandro,Mc,598,74571862,+598-74571862,Uruguay,9,Latam
217,Betty,Jimenez,505,16345008,+505-16345008,Nicaragua,5,Latam
218,Robert,Contreras,1,56848950,+1-56848950,Estados Unidos,2,America
219,Zen,Wellington,58,49120118,+58-49120118,Venezuela,4,Latam
220,Katty,Chavarria,359,32237310,+359-32237310,Bulgaria,3,Europe
221,Sandro,Cardenas,595,70103834,+595-70103834,Paraguay,10,Latam
222,Alejandra,Gonzalez,58,97178810,+58-97178810,Venezuela,4,Latam
223,Alessandro,Sandoval,54,24339588,+54-24339588,Argentina,1,Latam
224,Nilson,Alvarez,505,54807684,+505-54807684,Nicaragua,5,Latam
225,Roiner,Mata,506,89009569,+506-89009569,Costa Rica,0,Latam
226,Kevin,Chaves,54,49665285,+54-49665285,Argentina,1,Latam
227,Srini,Fernandez,505,71655652,+505-71655652,Nicaragua,5,Latam
228,Rudy,X-raz,506,71721555,+506-71721555,Costa Rica,0,Latam
229,Francisco,Rodriguez,420,94202931,+420-94202931,Republica Checa,7,Europe
230,Ohana,Zendaya,86,29751716,+86-29751716,China,11,Asia
231,Rodrigo,Cardenas,420,41684289,+420-41684289,Republica Checa,7,Europe
232,Francisco,Gonzalez,595,60826395,+595-60826395,Paraguay,10,Latam
233,Ruth,Ulrich,1,80083495,+1-80083495,Estados Unidos,2,America
234,Ruth,Yvay,420,17671176,+420-17671176,Republica Checa,7,Europe
235,Kevin,Yardy,86,80157943,+86-80157943,China,11,Asia
236,Casper,Cabille,505,42763654,+505-42763654,Nicaragua,5,Latam
237,Alex,Sentil,1868,83927135,+1868-83927135,Trinidad y Tobago,8,Latam
238,Alejandra,Alvarez,598,67775697,+598-67775697,Uruguay,9,Latam
239,Rosaline,Livi,598,29132780,+598-29132780,Uruguay,9,Latam
240,Casper,Ulrich,507,45560546,+507-45560546,Panama,6,Latam
241,Vany,Zendaya,58,96427112,+58-96427112,Venezuela,4,Latam
242,Alejandro,Alvarez,86,18786936,+86-18786936,China,11,Asia
243,Kevin,Salas,86,17277441,+86-17277441,China,11,Asia
244,Sandro,Yvay,598,91839627,+598-91839627,Uruguay,9,Latam
245,Pauline,Cardenas,506,17577844,+506-17577844,Costa Rica,0,Latam
246,Francisco,Cabille,1,24096387,+1-24096387,Estados Unidos,2,America
247,Ruth,Cardenas,91,14361232,+91-14361232,India,12,Asia
248,Pauline,Sandoval,359,94879511,+359-94879511,Bulgaria,3,Europe
249,Srini,Cabille,91,61563744,+91-61563744,India,12,Asia
250,Andrea,Sancho,58,38813244,+58-38813244,Venezuela,4,Latam
251,Roland,Fernandez,1868,33011727,+1868-33011727,Trinidad y Tobago,8,Latam
252,Srini,Rodriguez,86,30738132,+86-30738132,China,11,Asia
253,Pauline,Salas,506,68221293,+506-68221293,Costa Rica,0,Latam
254,Ruth,Sentil,505,27247150,+505-27247150,Nicaragua,5,Latam
255,Karina,Zendaya,598,32728561,+598-32728561,Uruguay,9,Latam
256,Reiner,Rojas,507,64610508,+507-64610508,Panama,6,Latam
257,Rodrigo,Cordero,359,83131934,+359-83131934,Bulgaria,3,Europe
258,Casper,Rojas,506,71834016,+506-71834016,Costa Rica,0,Latam
259,Kendra,Mc,420,19835731,+420-19835731,Republica Checa,7,Europe
260,Roland,Pavan,598,68730853,+598-68730853,Uruguay,9,Latam
261,Ruth,Mata,91,65560307,+91-65560307,India,12,Asia
262,Betty,Livi,507,48040504,+507-48040504,Panama,6,Latam
263,Sandro,Resi,420,30866938,+420-30866938,Republica Checa,7,Europe
264,Srini,Yardy,506,56510912,+506-56510912,Costa Rica,0,Latam
265,Francisco,Resi,595,54927820,+595-54927820,Paraguay,10,Latam
266,Pauline,Flores,420,60504806,+420-60504806,Republica Checa,7,Europe
267,Alex,Zendaya,595,21595314,+595-21595314,Paraguay,10,Latam
268,Nelson,Ruiz,58,24414378,+58-24414378,Venezuela,4,Latam
269,Randy,Sandoval,86,33698831,+86-33698831,China,11,Asia
270,Oscar,Salas,91,25749242,+91-25749242,India,12,Asia
271,Zen,Cordero,506,30533602,+506-30533602,Costa Rica,0,Latam
272,Randy,Fernandez,86,19918174,+86-19918174,China,11,Asia
273,Katty,Rojas,420,19334774,+420-19334774,Republica Checa,7,Europe
274,Francisco,Lumba,1868,57819455,+1868-57819455,Trinidad y Tobago,8,Latam
275,Kevin,Pavan,506,80461942,+506-80461942,Costa Rica,0,Latam
276,Robert,Ruan,359,82647233,+359-82647233,Bulgaria,3,Europe
277,Kendra,X-raz,58,54031464,+58-54031464,Venezuela,4,Latam
278,Kevin,Yvay,598,11123740,+598-11123740,Uruguay,9,Latam
279,Alexa,Alvarez,359,51552983,+359-51552983,Bulgaria,3,Europe
280,Antonio,Cordero,1868,17595498,+1868-17595498,Trinidad y Tobago,8,Latam
281,Nilson,Yvay,359,32114818,+359-32114818,Bulgaria,3,Europe
282,Andrea,Resi,595,94880387,+595-94880387,Paraguay,10,Latam
283,Andrea,Zendaya,598,39667519,+598-39667519,Uruguay,9,Latam
284,Pauline,Alvarez,595,73777177,+595-73777177,Paraguay,10,Latam
285,Andrea,Fernandez,359,34371197,+359-34371197,Bulgaria,3,Europe
286,Fran,Fernandez,58,91782260,+58-91782260,Venezuela,4,Latam
287,Roland,Sancho,86,93135821,+86-93135821,China,11,Asia
288,Roiner,Mata,505,82345186,+505-82345186,Nicaragua,5,Latam
289,Robert,Sancho,598,68123078,+598-68123078,Uruguay,9,Latam
290,Katty,Fernandez,359,85476639,+359-85476639,Bulgaria,3,Europe
291,Ariana,Livi,507,41569818,+507-41569818,Panama,6,Latam
292,Catalina,Amores,505,77373603,+505-77373603,Nicaragua,5,Latam
293,Casper,Sentil,595,95632376,+595-95632376,Paraguay,10,Latam
294,Casper,Clarito,58,73502798,+58-73502798,Venezuela,4,Latam
295,Antonio,Claire,506,48828878,+506-48828878,Costa Rica,0,Latam
296,Sandro,Chaves,54,40284825,+54-40284825,Argentina,1,Latam
297,Roiner,Gonzalez,1868,32587227,+1868-32587227,Trinidad y Tobago,8,Latam
298,Robert,Jimenez,598,59546770,+598-59546770,Uruguay,9,Latam
299,Rena,Yardy,1868,43797374,+1868-43797374,Trinidad y Tobago,8,Latam
300,Katty,Clarito,86,60779980,+86-60779980,China,11,Asia
